[
    {
        "Altitude(m)": 558091.7272650511,
        "Argument of Periapsis(deg)": 0.019868973332140504,
        "Eccentricity": 0.0,
        "Inclination(deg)": 53.0,
        "Latitude(deg)": 45.20998569480428,
        "Longitude(deg)": 138.5994959798604,
        "Mean Anomaly(deg)": 117.54757860273277,
        "RAAN(deg)": 109.97043010558404,
        "Satellite Name": "Starlink Shell 1 489",
        "Satellite Number": 489,
        "Semi-Major Axis(m)": 6931778.249405717,
        "Time(s)": 570
    },
    {
        "Altitude(m)": 558017.125966893,
        "Argument of Periapsis(deg)": 0.02021755181165174,
        "Eccentricity": 0.0,
        "Inclination(deg)": 53.0,
        "Latitude(deg)": 44.87863063805806,
        "Longitude(deg)": 139.31004065452538,
        "Mean Anomaly(deg)": 118.17440980628946,
        "RAAN(deg)": 109.96991133550658,
        "Satellite Name": "Starlink Shell 1 489",
        "Satellite Number": 489,
        "Semi-Major Axis(m)": 6931778.249405717,
        "Time(s)": 580
    },
    {
        "Altitude(m)": 557941.6091594575,
        "Argument of Periapsis(deg)": 0.020566130291162974,
        "Eccentricity": 0.0,
        "Inclination(deg)": 53.0,
        "Latitude(deg)": 44.54236427513664,
        "Longitude(deg)": 140.01194967183346,
        "Mean Anomaly(deg)": 118.8012410098462,
        "RAAN(deg)": 109.9693925654291,
        "Satellite Name": "Starlink Shell 1 489",
        "Satellite Number": 489,
        "Semi-Major Axis(m)": 6931778.249405717,
        "Time(s)": 590
    },
    {
        "Altitude(m)": 557865.2241798525,
        "Argument of Periapsis(deg)": 0.020914708770674213,
        "Eccentricity": 0.0,
        "Inclination(deg)": 53.0,
        "Latitude(deg)": 44.20129823075495,
        "Longitude(deg)": 140.70529947289037,
        "Mean Anomaly(deg)": 119.42807221340291,
        "RAAN(deg)": 109.96887379535164,
        "Satellite Name": "Starlink Shell 1 489",
        "Satellite Number": 489,
        "Semi-Major Axis(m)": 6931778.249405717,
        "Time(s)": 600
    },
    {
        "Altitude(m)": 557788.0190136293,
        "Argument of Periapsis(deg)": 0.021263287250185448,
        "Eccentricity": 0.0,
        "Inclination(deg)": 53.0,
        "Latitude(deg)": 43.85554247584684,
        "Longitude(deg)": 141.39017196890381,
        "Mean Anomaly(deg)": 120.0549034169596,
        "RAAN(deg)": 109.96835502527416,
        "Satellite Name": "Starlink Shell 1 489",
        "Satellite Number": 489,
        "Semi-Major Axis(m)": 6931778.249405717,
        "Time(s)": 610
    },
    {
        "Altitude(m)": 557710.0422707755,
        "Argument of Periapsis(deg)": 0.021611865729696686,
        "Eccentricity": 0.0,
        "Inclination(deg)": 53.0,
        "Latitude(deg)": 43.50520527918496,
        "Longitude(deg)": 142.06665459154624,
        "Mean Anomaly(deg)": 120.68173462051635,
        "RAAN(deg)": 109.96783625519669,
        "Satellite Name": "Starlink Shell 1 489",
        "Satellite Number": 489,
        "Semi-Major Axis(m)": 6931778.249405717,
        "Time(s)": 620
    },
    {
        "Altitude(m)": 557631.34316137,
        "Argument of Periapsis(deg)": 0.02196044420920792,
        "Eccentricity": 0.0,
        "Inclination(deg)": 53.0,
        "Latitude(deg)": 43.15039316629402,
        "Longitude(deg)": 142.73483868008748,
        "Mean Anomaly(deg)": 121.30856582407304,
        "RAAN(deg)": 109.96731748511921,
        "Satellite Name": "Starlink Shell 1 489",
        "Satellite Number": 489,
        "Semi-Major Axis(m)": 6931778.249405717,
        "Time(s)": 630
    },
    {
        "Altitude(m)": 557551.9714709119,
        "Argument of Periapsis(deg)": 0.02230902268871916,
        "Eccentricity": 0.0,
        "Inclination(deg)": 53.0,
        "Latitude(deg)": 42.79121088522361,
        "Longitude(deg)": 143.39482040819487,
        "Mean Anomaly(deg)": 121.93539702762979,
        "RAAN(deg)": 109.96679871504175,
        "Satellite Name": "Starlink Shell 1 489",
        "Satellite Number": 489,
        "Semi-Major Axis(m)": 6931778.249405717,
        "Time(s)": 640
    },
    {
        "Altitude(m)": 557471.977535347,
        "Argument of Periapsis(deg)": 0.022657601168230398,
        "Eccentricity": 0.0,
        "Inclination(deg)": 53.0,
        "Latitude(deg)": 42.42776137876529,
        "Longitude(deg)": 144.0466992077837,
        "Mean Anomaly(deg)": 122.5622282311865,
        "RAAN(deg)": 109.96627994496427,
        "Satellite Name": "Starlink Shell 1 489",
        "Satellite Number": 489,
        "Semi-Major Axis(m)": 6931778.249405717,
        "Time(s)": 650
    },
    {
        "Altitude(m)": 557391.4122157574,
        "Argument of Periapsis(deg)": 0.023006179647741636,
        "Eccentricity": 0.0,
        "Inclination(deg)": 53.0,
        "Latitude(deg)": 42.06014576269138,
        "Longitude(deg)": 144.69057789250917,
        "Mean Anomaly(deg)": 123.18905943474319,
        "RAAN(deg)": 109.9657611748868,
        "Satellite Name": "Starlink Shell 1 489",
        "Satellite Number": 489,
        "Semi-Major Axis(m)": 6931778.249405717,
        "Time(s)": 660
    },
    {
        "Altitude(m)": 557310.3268727851,
        "Argument of Periapsis(deg)": 0.023354758127252868,
        "Eccentricity": 0.0,
        "Inclination(deg)": 53.0,
        "Latitude(deg)": 41.6884633096097,
        "Longitude(deg)": 145.32656279995564,
        "Mean Anomaly(deg)": 123.81589063829988,
        "RAAN(deg)": 109.96524240480933,
        "Satellite Name": "Starlink Shell 1 489",
        "Satellite Number": 489,
        "Semi-Major Axis(m)": 6931778.249405717,
        "Time(s)": 670
    },
    {
        "Altitude(m)": 557228.7733407669,
        "Argument of Periapsis(deg)": 0.023703336606764106,
        "Eccentricity": 0.0,
        "Inclination(deg)": 53.0,
        "Latitude(deg)": 41.3128114380391,
        "Longitude(deg)": 145.95476243956222,
        "Mean Anomaly(deg)": 124.44272184185662,
        "RAAN(deg)": 109.96472363473185,
        "Satellite Name": "Starlink Shell 1 489",
        "Satellite Number": 489,
        "Semi-Major Axis(m)": 6931778.249405717,
        "Time(s)": 680
    },
    {
        "Altitude(m)": 557146.8039015788,
        "Argument of Periapsis(deg)": 0.024051915086275345,
        "Eccentricity": 0.0,
        "Inclination(deg)": 53.0,
        "Latitude(deg)": 40.93328570631736,
        "Longitude(deg)": 146.57528767184613,
        "Mean Anomaly(deg)": 125.06955304541337,
        "RAAN(deg)": 109.96420486465438,
        "Satellite Name": "Starlink Shell 1 489",
        "Satellite Number": 489,
        "Semi-Major Axis(m)": 6931778.249405717,
        "Time(s)": 690
    },
    {
        "Altitude(m)": 557064.4712582427,
        "Argument of Periapsis(deg)": 0.024400493565786583,
        "Eccentricity": 0.0,
        "Inclination(deg)": 53.0,
        "Latitude(deg)": 40.54997981097036,
        "Longitude(deg)": 147.18825190577698,
        "Mean Anomaly(deg)": 125.69638424897008,
        "RAAN(deg)": 109.96368609457691,
        "Satellite Name": "Starlink Shell 1 489",
        "Satellite Number": 489,
        "Semi-Major Axis(m)": 6931778.249405717,
        "Time(s)": 700
    },
    {
        "Altitude(m)": 556981.8285082817,
        "Argument of Periapsis(deg)": 0.024749072045297815,
        "Eccentricity": 0.0,
        "Inclination(deg)": 53.0,
        "Latitude(deg)": 40.16298558918832,
        "Longitude(deg)": 147.7937698010746,
        "Mean Anomaly(deg)": 126.32321545252677,
        "RAAN(deg)": 109.96316732449944,
        "Satellite Name": "Starlink Shell 1 489",
        "Satellite Number": 489,
        "Semi-Major Axis(m)": 6931778.249405717,
        "Time(s)": 710
    },
    {
        "Altitude(m)": 556898.9291168452,
        "Argument of Periapsis(deg)": 0.025097650524809053,
        "Eccentricity": 0.0,
        "Inclination(deg)": 53.0,
        "Latitude(deg)": 39.77239302506286,
        "Longitude(deg)": 148.3919575007671,
        "Mean Anomaly(deg)": 126.95004665608346,
        "RAAN(deg)": 109.96264855442195,
        "Satellite Name": "Starlink Shell 1 489",
        "Satellite Number": 489,
        "Semi-Major Axis(m)": 6931778.249405717,
        "Time(s)": 720
    },
    {
        "Altitude(m)": 556815.8268895851,
        "Argument of Periapsis(deg)": 0.02544622900432029,
        "Eccentricity": 0.0,
        "Inclination(deg)": 53.0,
        "Latitude(deg)": 39.37829025925959,
        "Longitude(deg)": 148.98293288066657,
        "Mean Anomaly(deg)": 127.5768778596402,
        "RAAN(deg)": 109.9621297843445,
        "Satellite Name": "Starlink Shell 1 489",
        "Satellite Number": 489,
        "Semi-Major Axis(m)": 6931778.249405717,
        "Time(s)": 730
    },
    {
        "Altitude(m)": 556732.5759453616,
        "Argument of Periapsis(deg)": 0.02579480748383153,
        "Eccentricity": 0.0,
        "Inclination(deg)": 53.0,
        "Latitude(deg)": 38.98076360181775,
        "Longitude(deg)": 149.56681430237805,
        "Mean Anomaly(deg)": 128.20370906319695,
        "RAAN(deg)": 109.96161101426702,
        "Satellite Name": "Starlink Shell 1 489",
        "Satellite Number": 489,
        "Semi-Major Axis(m)": 6931778.249405717,
        "Time(s)": 740
    },
    {
        "Altitude(m)": 556649.2306887339,
        "Argument of Periapsis(deg)": 0.026143385963342765,
        "Eccentricity": 0.0,
        "Inclination(deg)": 53.0,
        "Latitude(deg)": 38.57989754777884,
        "Longitude(deg)": 150.14372089504363,
        "Mean Anomaly(deg)": 128.83054026675367,
        "RAAN(deg)": 109.96109224418954,
        "Satellite Name": "Starlink Shell 1 489",
        "Satellite Number": 489,
        "Semi-Major Axis(m)": 6931778.249405717,
        "Time(s)": 750
    }
]